PHASE 3B (AO-10)        
1 14129U 83058B   21039.31055087 -.00000053  00000-0  00000-0 0  9994
2 14129  25.8167 176.1082 6059130 308.2508  11.1622  2.05867906255269
UOSAT 2 (UO-11)         
1 14781U 84021B   21042.51362613  .00000091  00000-0  17141-4 0  9990
2 14781  97.5909  48.5723 0009592 129.3102 230.8965 14.83245873988265
LUSAT (LO-19)           
1 20442U 90005G   21041.82584540 -.00000013  00000-0  11744-4 0  9996
2 20442  98.7251 356.2561 0011881 168.3212 191.8249 14.32975682622692
EYESAT A (AO-27)        
1 22825U 93061C   21042.51294432 -.00000005  00000-0  16048-4 0  9996
2 22825  98.9242  56.9902 0009161  46.5804 313.6138 14.30105809428257
ITAMSAT (IO-26)         
1 22826U 93061D   21041.53383785  .00000001  00000-0  18109-4 0  9993
2 22826  98.9183  55.9076 0009545  37.4912 322.6934 14.30443449428336
RADIO ROSTO (RS-15)     
1 23439U 94085A   21041.96485112 -.00000037  00000-0  15882-3 0  9999
2 23439  64.8138 220.5280 0157004 358.0303   1.9986 11.27570562 76070
JAS-2 (FO-29)           
1 24278U 96046B   21042.52438676 -.00000013  00000-0  20101-4 0  9991
2 24278  98.5809 127.1211 0351190 115.7970 247.9842 13.53101952209465
TECHSAT 1B (GO-32)      
1 25397U 98043D   21041.83356539 -.00000021  00000-0  10094-4 0  9992
2 25397  98.7573 347.8320 0002371  88.9840 271.1610 14.23700926173478
ISS (ZARYA)             
1 25544U 98067A   21042.55255980  .00003110  00000-0  64664-4 0  9993
2 25544  51.6440 244.1276 0002791   0.7402  95.1036 15.48964658269120
PCSAT (NO-44)           
1 26931U 01043C   21041.91871370 -.00000008  00000-0  28682-4 0  9992
2 26931  67.0493 246.9947 0007356 269.8531  90.1727 14.30605752 11144
SAUDISAT 1C (SO-50)     
1 27607U 02058C   21042.18722083 -.00000017  00000-0  17830-4 0  9999
2 27607  64.5569   4.4410 0029815  75.4321 285.0084 14.75710201976084
CUTE-1 (CO-55)          
1 27844U 03031E   21042.48241483  .00000047  00000-0  40846-4 0  9992
2 27844  98.6822  52.5932 0010947  84.6323 275.6103 14.22287422914119
CUBESAT XI-IV (CO-57)   
1 27848U 03031J   21042.01603272  .00000038  00000-0  36799-4 0  9995
2 27848  98.6882  52.7020 0010847  97.5257 262.7153 14.21867272913877
MOZHAYETS 4 (RS-22)     
1 27939U 03042A   21042.53700486  .00000082  00000-0  23466-4 0  9996
2 27939  98.1184 180.6701 0011901 322.4087  37.6287 14.66942424929065
CUBESAT XI-V            
1 28895U 05043F   21041.90655484  .00000111  00000-0  30236-4 0  9994
2 28895  98.0378 178.0666 0015626 247.0320 112.9234 14.63863176815495
CUTE-1.7+APD II (CO-65) 
1 32785U 08021C   21042.50567263  .00000227  00000-0  29980-4 0  9992
2 32785  97.5979  26.3413 0014366  63.7449 296.5243 14.88628968693509
DELFI-C3 (DO-64)        
1 32789U 08021G   21042.33656407  .00001129  00000-0  76249-4 0  9998
2 32789  97.3920  82.4982 0011179 209.1292 150.9315 15.08476541697915
SEEDS II (CO-66)        
1 32791U 08021J   21042.49182214  .00000283  00000-0  33756-4 0  9994
2 32791  97.5604  32.3503 0014046  31.9018 328.3049 14.91272451694080
YUBILEINY (RS-30)       
1 32953U 08025A   21042.43256129  .00000028  00000-0  12906-3 0  9999
2 32953  82.5054 129.3171 0018574 249.7476 110.1605 12.43099900577321
KKS-1 (KISEKI)          
1 33499U 09002H   21042.14552383  .00000091  00000-0  21288-4 0  9994
2 33499  98.2874 269.1580 0010380  84.8264 275.4129 14.75615833648217
SWISSCUBE               
1 35932U 09051B   21042.08959016  .00000123  00000-0  38695-4 0  9995
2 35932  98.6073 238.0771 0008584 112.5077 247.7029 14.56486359604601
BEESAT-1                
1 35933U 09051C   21042.47263117  .00000101  00000-0  33791-4 0  9997
2 35933  98.6050 240.3244 0006681 121.8345 238.3503 14.56550550604771
ITUPSAT1                
1 35935U 09051E   21042.47071734  .00000081  00000-0  29845-4 0  9993
2 35935  98.6155 240.4846 0009009 123.7194 236.4863 14.55687809604470
XIWANG-1 (HOPE-1)       
1 36122U 09072B   21042.21075492 -.00000004  00000-0  10111-3 0  9993
2 36122 100.1172  28.1832 0007871  36.9440 323.2248 13.16359363536289
JUGNU                   
1 37839U 11058B   21042.32565697  .00000319  00000-0  28079-4 0  9990
2 37839  19.9607 274.1277 0018999 141.8761  13.7848 14.12703183482711
SRMSAT                  
1 37841U 11058D   21042.53429159  .00000306  00000-0  23165-4 0  9995
2 37841  19.9733 342.1358 0011743 351.2201 164.1523 14.10684620482067
M-CUBED & EXP-1 PRIME   
1 37855U 11061F   21041.64865491  .00000915  00000-0  51882-4 0  9991
2 37855 101.7259 259.2945 0168324  87.7000 274.3474 15.07179766507076
STRAND-1                
1 39090U 13009E   21042.14690274  .00000017  00000-0  20878-4 0  9993
2 39090  98.4364 247.2471 0008134 298.2985  61.7380 14.35167942416944
SOMP                    
1 39134U 13015E   21042.50881587  .00001287  00000-0  65085-4 0  9997
2 39134  64.8611 221.8549 0009718 221.3184 138.7210 15.21973253432420
BEESAT-3                
1 39135U 13015F   21041.91818212  .00000925  00000-0  53638-4 0  9996
2 39135  64.8646 250.9220 0013028 201.4243 158.6340 15.18898342431427
BEESAT-2                
1 39136U 13015G   21041.99546665  .00000958  00000-0  55902-4 0  9997
2 39136  64.8730 256.5493 0028136 260.5143  99.2803 15.18285537431719
ZACUBE-1 (TSHEPISOSAT)  
1 39417U 13066B   21042.48450002  .00000186  00000-0  29635-4 0  9996
2 39417  97.5822  33.4211 0057824 212.9478 146.8127 14.81425554390428
GOMX-1                  
1 39430U 13066Q   21042.32438952  .00000150  00000-0  35852-4 0  9993
2 39430  97.8101 332.6688 0151186 151.6790 209.2736 14.59532009384646
CUBEBUG-2 (LO-74)       
1 39440U 13066AA  21042.51192631  .00000191  00000-0  33618-4 0  9999
2 39440  97.6607  18.1921 0078509 284.5375  74.7137 14.76160213389046
FUNCUBE-1 (AO-73)       
1 39444U 13066AE  21042.47744531  .00000231  00000-0  34455-4 0  9995
2 39444  97.5740  35.7487 0057105 203.8474 156.0093 14.82312863389369
UWE-3                   
1 39446U 13066AG  21042.49736756  .00000188  00000-0  31602-4 0  9991
2 39446  97.6233  25.2312 0068332 249.6899 109.6961 14.78694333388483
SPROUT                  
1 39770U 14029E   21042.55194162  .00000935  00000-0  10744-3 0  9990
2 39770  97.9066 154.0538 0007655 260.4618  99.5717 14.88173310364615
UNISAT-6                
1 40012U 14033C   21042.53173612  .00000172  00000-0  32885-4 0  9995
2 40012  97.6861 251.4825 0057098 308.4747  51.1347 14.74239628357647
DUCHIFAT-1              
1 40021U 14033M   21042.05450771  .00000410  00000-0  47132-4 0  9992
2 40021  97.9623 341.0069 0011806 216.5186 143.5228 14.91175856361443
QB50P1                  
1 40025U 14033R   21042.04822373  .00000201  00000-0  27208-4 0  9996
2 40025  97.9275 332.4643 0011187 230.6692 129.3534 14.89325877361116
NUDT-PHONESAT           
1 40900U 15049B   21042.54879404  .00002777  00000-0  11248-3 0  9994
2 40900  97.4256  57.5363 0011135 216.3764 264.0616 15.25472682299622
ZDPS 2A                 
1 40901U 15049C   21042.53344661  .00001548  00000-0  77105-4 0  9996
2 40901  97.4638  51.1826 0011482 259.7856 219.1579 15.19021758298859
ZDPS 2B                 
1 40902U 15049D   21042.52212804  .00001528  00000-0  76122-4 0  9995
2 40902  97.4652  48.4615 0011542 256.6663 260.8760 15.19039776298821
XW-2A                   
1 40903U 15049E   21042.51709515  .00002713  00000-0  60508-4 0  9993
2 40903  97.2563  97.3311 0014439 111.8371 355.7284 15.44368252303355
KAITUO 1A               
1 40904U 15049F   21042.55785855  .00000408  00000-0  24707-4 0  9999
2 40904  97.4839  46.0929 0012822 275.4310 200.7436 15.15996954298461
2015-049G               
1 40905U 15049G   21042.49597576  .00000262  00000-0  17669-4 0  9991
2 40905  97.4962  43.1462 0013865 274.2330 204.1946 15.14822195298262
XW-2C                   
1 40906U 15049H   21042.54747706  .00000859  00000-0  47521-4 0  9992
2 40906  97.4847  46.5110 0012998 264.0042 214.7080 15.16477108298487
XW-2D                   
1 40907U 15049J   21042.50718160  .00000707  00000-0  39409-4 0  9999
2 40907  97.4827  46.2260 0012348 260.7693 251.4884 15.16761100298504
LILACSAT-2              
1 40908U 15049K   21042.54612235  .00000565  00000-0  34459-4 0  9992
2 40908  97.5006  44.2873 0014181 275.7100 202.6802 15.14283896298179
XW-2F                   
1 40910U 15049M   21042.55057196  .00001302  00000-0  66140-4 0  9997
2 40910  97.4723  49.1883 0012877 246.3737 231.8314 15.18598975298614
XW-2B                   
1 40911U 15049N   21042.50308225  .00000713  00000-0  39798-4 0  9999
2 40911  97.4835  46.9169 0012238 261.5417 250.0893 15.16681481298399
KAITUO 1B               
1 40912U 15049P   21042.49857855  .00001428  00000-0  67278-4 0  9994
2 40912  97.4479  53.4671 0013392 218.2145 294.3974 15.21077301299044
TIANWANG 1C (TW-1C)     
1 40926U 15051B   21042.42854258  .00255712  28724-4  52790-3 0  9995
2 40926  97.0440 104.4938 0003681 229.1699 186.1984 15.99234106304646
TIANWANG 1A (TW-1A)     
1 40928U 15051D   21042.52272844  .00004082  00000-0  89757-4 0  9992
2 40928  97.0899  70.4803 0011043  42.6869 113.2677 15.44490082302248
LAPAN-A2                
1 40931U 15052B   21042.24311740  .00000630  00000-0 -13000-5 0  9990
2 40931   6.0009  72.4033 0012844  54.9738 305.1565 14.76661181290612
E-ST@R-II               
1 41459U 16025D   21042.45573439  .00002197  00000-0  11078-3 0  9995
2 41459  98.1222 171.3652 0163338 126.8902 234.7402 15.07441048263430
AAUSAT 4                
1 41460U 16025E   21042.46365651  .00003193  00000-0  15293-3 0  9993
2 41460  98.1198 174.6454 0150855 112.8066 248.9102 15.10220407263696
NUSAT-1 (FRESCO)        
1 41557U 16033B   21042.56293888  .00001571  00000-0  58606-4 0  9996
2 41557  97.3959 137.2751 0012027 327.7372 127.7384 15.28866896262297
BEESAT-4                
1 41619U 16040W   21041.83893637  .00001401  00000-0  59049-4 0  9994
2 41619  97.2886 101.4047 0012279  63.6935 296.5563 15.24894172245711
